[{"OBJECT_NAME":"STARLINK-31011","OBJECT_ID":"2023-191K","EPOCH":"2026-03-09T09:54:52.523424","MEAN_MOTION":15.26744803,"ECCENTRICITY":8.44e-5,"INCLINATION":42.9999,"RA_OF_ASC_NODE":104.5994,"ARG_OF_PERICENTER":246.5904,"MEAN_ANOMALY":113.4858,"EPHEMERIS_TYPE":0,"CLASSIFICATION_TYPE":"U","NORAD_CAT_ID":58517,"ELEMENT_SET_NO":999,"REV_AT_EPOCH":12543,"BSTAR":-1.6462929e-5,"MEAN_MOTION_DOT":-7.01e-6,"MEAN_MOTION_DDOT":0},{"OBJECT_NAME":"ELECTRON KICK STAGE R\/B","OBJECT_ID":"2022-147B","EPOCH":"2026-03-09T22:28:20.187264","MEAN_MOTION":15.28920172,"ECCENTRICITY":0.00095089,"INCLINATION":97.642,"RA_OF_ASC_NODE":85.1135,"ARG_OF_PERICENTER":110.4683,"MEAN_ANOMALY":249.7578,"EPHEMERIS_TYPE":0,"CLASSIFICATION_TYPE":"U","NORAD_CAT_ID":54228,"ELEMENT_SET_NO":999,"REV_AT_EPOCH":18390,"BSTAR":0.00083201931,"MEAN_MOTION_DOT":0.00023374,"MEAN_MOTION_DDOT":0}]
